#aV2022  4 14  0  0  0.00000000     288 DD+AD WGS84 FIT  NGA
## 2205 345600.00000000   300.00000000 59683 0.0000000000000
+   32     1  2  3  4  5  6  7  8  9 10 11 12 13 14 15 16 17
+         18 19 20 21 22 23 24 25 26 27 28 29 30 31 32  0  0
+          0  0  0  0  0  0  0  0  0  0  0  0  0  0  0  0  0
+          0  0  0  0  0  0  0  0  0  0  0  0  0  0  0  0  0
+          0  0  0  0  0  0  0  0  0  0  0  0  0  0  0  0  0
++         2  2  2  2  2  2  2  2  2  2  2  2  2  2  2  2  2
++         2  2  2  2  2  2  2  2  2  2  2  2  2  2  2  0  0
++         0  0  0  0  0  0  0  0  0  0  0  0  0  0  0  0  0
++         0  0  0  0  0  0  0  0  0  0  0  0  0  0  0  0  0
++         0  0  0  0  0  0  0  0  0  0  0  0  0  0  0  0  0
%c cc cc ccc ccc cccc cccc cccc cccc ccccc ccccc ccccc ccccc
%c cc cc ccc ccc cccc cccc cccc cccc ccccc ccccc ccccc ccccc
%f  0.0000000  0.000000000  0.00000000000  0.000000000000000
%f  0.0000000  0.000000000  0.00000000000  0.000000000000000
%i    0    0    0    0      0      0      0      0         0
%i    0    0    0    0      0      0      0      0         0
/*      NGA, ST. LOUIS,MO.                                  
/*   EPHEMERIS COMPUTED FROM 2 DAYS OF DATA                 
/*   EPOCHA v7 SMOOTHER                                     
/*   G2139 IERS2010 SATIGS SATAPC                           
*  2022  4 14 14 40  0.00000000
P  1   7136.803764 -18294.794468 -17998.434906    385.203431                    
V  1  19721.880349 -10588.369710  19230.905317     -0.087132                    
P  2 -21416.370659  15817.762796   -153.495029   -653.099010                    
V  2   -737.833937  -2631.371975 -31779.311831     -0.001952                    
P  3  -3297.983097 -17206.286512 -20101.618307   -206.327101                    
V  3  22747.746914  10938.717174 -13051.999993     -0.153843                    
P  4   1002.986912 -26445.631088  -1604.540609   -175.961649                    
V  4   2883.757907   2041.060058 -31733.691842      0.031121                    
P  5 -13223.009316   9783.369489  20722.319067    -78.276257                    
V  5 -23740.363267 -12143.622762  -9193.740232     -0.013563                    
P  6 -22259.486844   2829.377319 -14210.754181    266.517483                    
V  6  14548.156819 -10829.150169 -24751.157982      0.136771                    
P  7  -9850.489686 -12214.886313  21845.001678    320.151077                    
V  7  22778.543337 -14158.776969   1904.094130      0.011451                    
P  8   6458.705870 -22965.923333  11254.794178    -63.915156                    
V  8   3458.878847  14288.332488  27428.580718     -0.015932                    
P  9  -7515.658026 -23925.685582   8634.013287   -343.754108                    
V  9   2173.851285 -11217.476747 -29003.051801      0.024732                    
P 10  24030.794466  11598.354239  -1255.878006   -379.093215                    
V 10    539.101946   2760.913332  31772.977497     -0.127726                    
P 11 -23203.372948  12912.492234     17.838461    -40.335836                    
V 11  -1369.735300  -2405.644648 -31808.416565      0.070410                    
P 12  -1719.263535  16145.099586 -21309.757112   -200.253676                    
V 12 -22716.554518 -13437.318069  -8333.784143     -0.058023                    
P 13 -12848.478301  16280.661528  16343.291611    294.070721                    
V 13    179.531366 -21165.614194  21195.383025      0.066591                    
P 14 -23244.729944 -12929.800681   -596.094415   -102.419677                    
V 14    851.766539  -2976.073335  31511.540074     -0.027428                    
P 15  -3573.613900  23995.818547  10026.303964    -68.989268                    
V 15  -5854.182870 -12696.091540  27509.805640      0.029457                    
P 16  17685.608809  -4278.539867  19234.666430   -491.557577                    
V 16  20294.384809  14356.203716 -14802.272282     -0.038299                    
P 17 -13185.955318 -10683.970334 -19990.334666    600.285326                    
V 17   1616.494628 -26275.255823  12756.612549      0.048816                    
P 18   8754.588952  12194.855880  21907.457711    195.667233                    
V 18 -23766.490711  14410.760622   1372.085472     -0.094369                    
P 19 -14746.357458  -3052.448949 -22150.553031    144.292505                    
V 19   1938.121135 -27362.250173   2317.934961      0.049918                    
P 20 -21038.448490   4643.978026  15378.209140    515.830714                    
V 20 -17806.489473  -8733.049465 -21958.188799     -0.001774                    
P 21  15931.986416 -18932.445555  -8030.338851    160.432065                    
V 21  11018.620320  -4101.350325  29851.359488      0.003254                    
P 22  15028.534777   -510.812680 -21478.029812    243.265287                    
V 22  -1020.908276  28245.010632  -1537.418572      0.060064                    
P 23  18884.277338  16331.137779   9197.286982    -14.880600                    
V 23 -11465.962293  -3087.174409  28897.548109     -0.028620                    
P 24  -9633.403066  20258.734487 -14194.474746    256.627467                    
V 24 -15983.319325   8274.475906  23555.445221     -0.051185                    
P 25  12737.383557  18377.014440 -14831.618457    311.871575                    
V 25 -17060.452670  -6708.302217 -23148.886826      0.050136                    
P 26  24300.163192   2505.165830  10709.177788    198.559132                    
V 26  11227.313663   8296.350116 -26886.870545      0.028158                    
P 27  12511.911064 -13046.887304  19107.095904    182.834052                    
V 27   2416.582987  24736.546530  15529.515759      0.091843                    
P 28 -23425.156387  -8210.534913  -8606.934685    371.435912                    
V 28  -8350.944871  -8627.683625  29447.508635     -0.036143                    
P 29   4406.438662  24911.324320   7938.834737   -502.971976                    
V 29  -2449.495267  10062.786069 -30079.764415     -0.041873                    
P 30 -17653.548386  -5774.281145  19151.224488   -523.722619                    
V 30  19897.928177 -13779.232969  13994.235055     -0.017469                    
P 31  23628.064487  -4262.501282 -11981.296365   -173.382552                    
V 31 -11662.503728   9443.916154 -26184.840142     -0.016403                    
P 32  14828.023469   7643.547805 -20565.555360   -105.297397                    
V 32    380.807498  26414.547482   9837.120838     -0.080321                    
EOF
